OBJECT_NAME,OBJECT_ID,EPOCH,MEAN_MOTION,ECCENTRICITY,INCLINATION,RA_OF_ASC_NODE,ARG_OF_PERICENTER,MEAN_ANOMALY,EPHEMERIS_TYPE,CLASSIFICATION_TYPE,NORAD_CAT_ID,ELEMENT_SET_NO,REV_AT_EPOCH,BSTAR,MEAN_MOTION_DOT,MEAN_MOTION_DDOT
STARLINK-31240,2024-038U,2026-06-30T19:09:38.240064,15.27578890,.00012242,43.0042,105.0556,257.6093,102.4622,0,U,59041,999,13209,.61930703E-4,.1442E-4,0
STARLINK-31202,2024-038V,2026-06-30T20:14:41.754912,15.29203044,.00045704,43.0030,103.6844,247.5918,112.4451,0,U,59042,999,13217,.11958635E-2,.34489E-3,0
STARLINK-31234,2024-038W,2026-06-30T20:34:32.348640,15.27571138,.00012928,42.9989,104.6314,268.8277,91.2426,0,U,59043,999,13199,-.9186258E-5,-.515E-5,0
STARLINK-31153,2024-038X,2026-06-30T20:03:05.195520,15.27577348,.00009833,43.0018,104.4700,274.3588,85.7152,0,U,59044,999,13199,.33655895E-4,.664E-5,0
STARLINK-31241,2024-038Y,2026-06-30T22:14:15.116640,15.27579340,.00012578,43.0021,104.2944,271.4178,88.6530,0,U,59045,999,13217,.20761302E-4,.309E-5,0
STARLINK-31205,2024-038Z,2026-06-30T20:28:59.792448,15.27573491,.00010258,42.9950,104.5963,220.2463,139.8313,0,U,59046,999,13210,.28696354E-4,.528E-5,0
STARLINK-31265,2024-041A,2026-06-30T15:02:17.320704,15.27588272,.00005873,43.0048,32.9046,224.3841,135.6964,0,U,59074,999,13154,-.64569276E-4,-.2039E-4,0
STARLINK-31276,2024-041B,2026-06-30T15:50:10.862880,15.27577317,.0001608,43.0025,32.2982,275.6749,84.3919,0,U,59075,999,13160,.72958316E-4,.1746E-4,0
STARLINK-31259,2024-041C,2026-06-30T14:21:34.557696,15.27577477,.00014111,43.0005,32.6950,262.4445,97.6247,0,U,59076,999,13049,.14360898E-4,.133E-5,0
STARLINK-31281,2024-041D,2026-06-30T14:27:07.754976,15.27578479,.00016756,43.0017,32.7271,273.0339,87.0321,0,U,59077,999,13159,.17359799E-4,.215E-5,0
STARLINK-31274,2024-041E,2026-06-29T23:28:07.001184,15.27583092,.00013586,43.0047,36.6350,277.7817,82.2881,0,U,59078,999,13144,.1722903E-5,-.215E-5,0
STARLINK-31257,2024-041F,2026-06-30T22:36:24.994944,15.27583642,.00009323,43.0010,30.9749,233.1043,126.9724,0,U,59079,999,13159,.89684852E-4,.2207E-4,0
STARLINK-31292,2024-041H,2026-06-30T22:23:27.351744,15.27579293,.00015902,43.0025,30.9078,272.2363,87.8307,0,U,59081,999,13158,.61989824E-4,.1444E-4,0
STARLINK-31286,2024-041J,2026-06-30T14:38:13.654464,15.27576535,.00011399,42.9987,32.7843,268.7000,91.3721,0,U,59082,999,13162,.33944389E-4,.672E-5,0
STARLINK-31252,2024-041K,2026-06-30T17:37:43.059360,15.27573757,.00011704,43.0029,309.1023,270.5818,89.4899,0,U,59083,999,13256,.5899124E-5,-.1E-5,0
STARLINK-31261,2024-041L,2026-06-29T23:37:21.893088,15.27584165,.00013832,43.0053,36.6818,267.8724,92.1969,0,U,59084,999,13149,.6633451E-5,-.8E-6,0
STARLINK-31290,2024-041M,2026-06-30T14:15:06.952608,15.27578252,.00013271,43.0049,18.8122,193.8489,166.2326,0,U,59085,999,13184,.86982319E-4,.2132E-4,0
STARLINK-31279,2024-041N,2026-06-30T14:05:07.869696,15.27579908,.00012146,43.0042,33.4637,271.5827,88.4885,0,U,59086,999,13158,.36261506E-4,.736E-5,0
STARLINK-31266,2024-041P,2026-06-30T14:43:46.874208,15.27575440,.00010719,43.0007,32.8108,272.2782,87.7947,0,U,59087,999,13159,.4023696E-4,.845E-5,0
STARLINK-31313,2024-041Q,2026-06-30T22:38:15.494496,15.27575990,.00011033,43.0010,30.9845,265.3922,94.6804,0,U,59088,999,13159,.32751314E-4,.639E-5,0
STARLINK-31307,2024-041R,2026-06-30T14:41:55.859712,15.27574515,.00007721,43.0001,32.8041,258.0047,102.0719,0,U,59089,999,13159,.7819548E-5,-.47E-6,0
STARLINK-31316,2024-041S,2026-06-30T11:38:33.750240,15.27575047,.00010417,43.0009,346.8802,269.7784,90.2948,0,U,59090,999,13200,.19949903E-4,.287E-5,0
STARLINK-31310,2024-041U,2026-06-30T22:05:09.815136,15.27572094,.00014942,43.0045,31.6662,261.5256,98.5426,0,U,59092,999,13158,.5734722E-4,.1316E-4,0
STARLINK-31343,2024-041V,2026-06-29T23:48:28.088064,15.27581493,.00013268,43.0052,36.7367,275.5993,84.4707,0,U,59093,999,13149,.62296125E-4,.1452E-4,0
STARLINK-31295,2024-041X,2026-06-29T23:16:58.797408,15.27595543,.0001359,43.0032,36.5745,279.8487,80.2211,0,U,59095,999,13144,.56781163E-4,.1301E-4,0
STARLINK-31291,2024-041Y,2026-06-30T14:54:52.581024,15.27568726,.00010342,43.0019,32.8603,237.2780,122.7972,0,U,59096,999,13154,-.5267327E-4,-.1711E-4,0
STARLINK-31312,2024-044A,2026-06-30T21:25:51.893472,15.27577506,.00010337,43.0018,137.0152,270.3866,89.6868,0,U,59152,999,13149,.50989615E-4,.1141E-4,0
STARLINK-31308,2024-044B,2026-06-30T22:00:20.851200,15.27584370,.00005072,42.9997,140.7468,277.3975,82.6819,0,U,59153,999,13146,-.26524867E-4,-.992E-5,0
STARLINK-31270,2024-044C,2026-06-29T18:08:19.898304,15.27576354,.00024081,43.0072,194.2261,269.3905,90.6671,0,U,59154,999,13073,.34115769E-4,.676E-5,0
STARLINK-31341,2024-044D,2026-06-29T18:27:59.367168,15.27576265,.00023164,43.0055,197.7748,281.0169,79.0422,0,U,59155,999,13066,.24935454E-4,.424E-5,0
STARLINK-31338,2024-044E,2026-06-30T11:38:09.843360,15.27573999,.00013367,43.0042,193.6814,276.6065,83.4634,0,U,59156,999,13077,-.10593973E-4,-.554E-5,0
STARLINK-31334,2024-044F,2026-06-30T11:27:04.162464,15.27582553,.00013448,43.0025,193.6211,280.5159,79.5541,0,U,59157,999,13077,-.54222144E-4,-.1754E-4,0
STARLINK-31297,2024-044G,2026-06-30T11:29:36.876192,15.27577301,.00011616,43.0011,190.1970,298.9783,61.0952,0,U,59158,999,13084,.7903879E-5,-.45E-6,0
STARLINK-31182,2024-044H,2026-06-29T17:20:13.812576,15.27575495,.00013594,43.0004,193.9740,275.3126,84.7571,0,U,59159,999,13073,.14053552E-4,.125E-5,0
STARLINK-31327,2024-044J,2026-06-30T11:33:18.316800,15.27575572,.00026455,43.0083,190.2092,264.4866,95.5684,0,U,59160,999,13084,.25965904E-4,.452E-5,0
STARLINK-31256,2024-044K,2026-06-30T12:15:39.201696,15.27579526,.00020749,43.0006,189.5634,278.1072,81.9544,0,U,59161,999,13085,-.86726253E-4,-.2648E-4,0
STARLINK-31272,2024-044L,2026-06-30T12:21:12.945888,15.27573409,.00011528,43.0010,189.5985,275.9318,84.1402,0,U,59162,999,13082,-.2917983E-5,-.342E-5,0
STARLINK-31278,2024-044M,2026-06-29T17:36:52.894656,15.27577707,.00013127,42.9998,194.0586,276.2688,83.8014,0,U,59163,999,13070,.48097981E-4,.1062E-4,0
STARLINK-31309,2024-044N,2026-06-29T17:42:25.909632,15.27578545,.00012319,42.9993,194.0879,278.3557,81.7155,0,U,59164,999,13073,.51057224E-4,.1143E-4,0
STARLINK-31325,2024-044P,2026-06-30T11:01:51.587040,15.27571291,.00007828,42.9998,190.0440,272.8372,87.2390,0,U,59165,999,13081,-.7970381E-5,-.481E-5,0
STARLINK-31342,2024-044Q,2026-06-28T18:19:20.684640,15.27563425,.00011604,43.0012,199.6756,269.4743,90.5976,0,U,59166,999,13058,-.95083033E-4,-.2876E-4,0
STARLINK-31298,2024-044R,2026-06-30T00:13:51.560256,15.27579216,.00004201,42.9994,192.6878,261.7342,98.3462,0,U,59167,999,13074,-.240334E-6,-.268E-5,0
STARLINK-31322,2024-044S,2026-06-30T11:49:57.941472,15.27574525,.00014361,43.0015,190.2904,272.1381,87.9307,0,U,59168,999,13084,.2685796E-5,-.188E-5,0
STARLINK-31329,2024-044T,2026-06-30T11:38:51.564192,15.27575529,.00016502,43.0034,190.2370,274.0223,86.0440,0,U,59169,999,13081,.3534896E-5,-.165E-5,0
STARLINK-31340,2024-044U,2026-06-30T22:37:50.067840,15.27568758,.0000982,43.0042,147.8777,237.2932,122.7825,0,U,59170,999,13134,-.4697575E-5,-.391E-5,0
STARLINK-31344,2024-044V,2026-06-30T11:44:25.577088,15.27542515,.00015413,43.0012,190.2706,321.2847,38.7894,0,U,59171,999,13084,.25944787E-3,.6876E-4,0
STARLINK-31348,2024-044W,2026-06-29T22:29:51.954432,15.27607715,.00008875,42.9989,146.2924,275.0174,85.0576,0,U,59172,999,13127,.74183428E-3,.20225E-3,0
STARLINK-31289,2024-044X,2026-06-30T11:18:30.333888,15.27569458,.00026474,43.0064,190.1306,265.1753,94.8796,0,U,59173,999,13084,-.41562865E-4,-.1406E-4,0
STARLINK-31283,2024-044Y,2026-06-30T22:00:01.999584,15.27571191,.00012835,42.9997,140.6625,263.4961,130.7479,0,U,59174,999,586,.81057089E-3,.22104E-3,0
STARLINK-31439,2024-045A,2026-06-30T23:10:48.112032,15.27582294,.00012016,43.0019,169.5240,266.6901,93.3813,0,U,59178,999,6685,.49436507E-4,.1099E-4,0
STARLINK-31410,2024-045B,2026-06-30T10:35:00.305664,15.27573635,.00025642,43.0044,175.9269,270.8394,89.2164,0,U,59179,999,13040,.83457662E-4,.2034E-4,0
STARLINK-31395,2024-045C,2026-06-30T11:06:27.213408,15.27584208,.00013482,43.0012,176.0844,267.8147,92.2551,0,U,59180,999,13040,.53434477E-4,.1209E-4,0
STARLINK-31486,2024-045D,2026-06-30T23:16:21.476928,15.27600947,.00026731,43.0055,169.5558,296.9990,63.0589,0,U,59181,999,13052,-.29659154E-3,-.8421E-4,0
STARLINK-31411,2024-045E,2026-06-29T16:33:01.641312,15.27577618,.00009764,43.0008,179.7392,276.2245,83.8496,0,U,59182,999,13029,.3215786E-4,.623E-5,0
STARLINK-31382,2024-045G,2026-06-30T11:15:32.600448,15.27543802,.00008195,42.9986,175.2700,40.8088,319.2825,0,U,59184,999,13041,-.15431363E-3,-.4501E-4,0
STARLINK-31394,2024-045H,2026-06-30T10:05:38.848992,15.27577649,.00013461,43.0025,165.4003,278.6726,81.3973,0,U,59185,999,13052,.36533834E-4,.743E-5,0
STARLINK-31403,2024-045J,2026-06-30T09:30:39.168288,15.27591095,.00005973,43.0003,154.6089,251.0419,109.0368,0,U,59186,999,13058,.13962178E-3,.3583E-4,0
STARLINK-31514,2024-045K,2026-06-30T10:29:29.817888,15.27547751,.00023811,43.0062,175.8987,271.8902,88.1678,0,U,59187,999,13040,-.10336283E-3,-.3103E-4,0
STARLINK-31478,2024-045L,2026-06-30T10:14:38.881824,15.27562913,.0002261,43.0016,175.8120,258.7073,101.3525,0,U,59188,999,13040,-.1230906E-3,-.3646E-4,0
STARLINK-31498,2024-045M,2026-06-29T11:19:22.980000,15.27523933,.00015369,43.0044,181.5456,283.1043,76.9637,0,U,59189,999,13025,-.33078222E-3,-.9338E-4,0
STARLINK-31563,2024-045N,2026-06-29T16:42:17.146656,15.27570072,.00010254,43.0006,179.7868,278.9915,81.0820,0,U,59190,999,13029,-.11146636E-4,-.569E-5,0
STARLINK-31551,2024-045P,2026-06-30T00:17:03.164352,15.27617505,.00020232,42.9989,174.4211,278.5661,81.4961,0,U,59191,999,13038,.1836777E-3,.4801E-4,0
STARLINK-31536,2024-045Q,2026-06-30T22:00:01.999584,15.27561419,.00013201,43.0006,173.0897,261.4679,254.3602,0,U,59192,999,586,.13906775E-2,.38183E-3,0
STARLINK-31548,2024-045R,2026-06-30T00:01:48.362016,15.27585221,.00021233,43.0034,178.6402,282.8400,77.2214,0,U,59193,999,13033,.48880162E-4,.1083E-4,0
